{
  "type": "FeatureCollection",
  "features": [
    {
      "type": "Feature",
      "properties": {
        "norad_id": 46277,
        "name": "NEMO-HD",
        "group": "resource",
        "lat": -16.120234331757697,
        "lon": -127.87003065751722,
        "alt_km": 450.37975792017915,
        "timestamp": "2025-12-21T05:44:51.233606+00:00",
        "meta_object_name": "NEMO-HD",
        "meta_object_id": "2020-061F",
        "meta_epoch": "2025-12-20T22:39:46.745856",
        "meta_mean_motion": 15.40482785,
        "meta_eccentricity": 0.00013503,
        "meta_inclination": 97.2201,
        "meta_ra_of_asc_node": 53.9383,
        "meta_arg_of_pericenter": 52.071,
        "meta_mean_anomaly": 308.0659,
        "meta_ephemeris_type": 0,
        "meta_classification_type": "U",
        "meta_norad_cat_id": 46277,
        "meta_element_set_no": 999,
        "meta_rev_at_epoch": 29450,
        "meta_bstar": 0.00017904581,
        "meta_mean_motion_dot": 7.175e-05,
        "meta_mean_motion_ddot": 0,
        "tle_line1": "1 46277U 20061F   25354.94429104  .00007175  00000+0  17905-3 0  9991",
        "tle_line2": "2 46277  97.2201  53.9383 0001350  52.0710 308.0659 15.40482785294509"
      },
      "geometry": {
        "type": "Point",
        "coordinates": [
          -127.87003065751722,
          -16.120234331757697
        ]
      }
    },
    {
      "type": "Feature",
      "properties": {
        "norad_id": 46984,
        "name": "SENTINEL-6A",
        "group": "resource",
        "lat": 44.90203354593807,
        "lon": 170.9577398404231,
        "alt_km": 1337.5969791636035,
        "timestamp": "2025-12-21T05:44:51.233616+00:00",
        "meta_object_name": "SENTINEL-6A",
        "meta_object_id": "2020-086A",
        "meta_epoch": "2025-12-20T20:06:54.788832",
        "meta_mean_motion": 12.80930832,
        "meta_eccentricity": 0.0007717,
        "meta_inclination": 66.0395,
        "meta_ra_of_asc_node": 145.4873,
        "meta_arg_of_pericenter": 269.3467,
        "meta_mean_anomaly": 90.6664,
        "meta_ephemeris_type": 0,
        "meta_classification_type": "U",
        "meta_norad_cat_id": 46984,
        "meta_element_set_no": 999,
        "meta_rev_at_epoch": 23748,
        "meta_bstar": -3.5105197e-05,
        "meta_mean_motion_dot": -6.9e-07,
        "meta_mean_motion_ddot": 0,
        "tle_line1": "1 46984U 20086A   25354.83813413 -.00000069  00000+0 -35105-4 0  9991",
        "tle_line2": "2 46984  66.0395 145.4873 0007717 269.3467  90.6664 12.80930832237484"
      },
      "geometry": {
        "type": "Point",
        "coordinates": [
          170.9577398404231,
          44.90203354593807
        ]
      }
    },
    {
      "type": "Feature",
      "properties": {
        "norad_id": 48079,
        "name": "GAOFEN-12 02",
        "group": "resource",
        "lat": -81.43088919661403,
        "lon": 57.88841258088103,
        "alt_km": 637.0074554354096,
        "timestamp": "2025-12-21T05:44:51.233626+00:00",
        "meta_object_name": "GAOFEN-12 02",
        "meta_object_id": "2021-026A",
        "meta_epoch": "2025-12-20T23:39:08.191872",
        "meta_mean_motion": 14.80683978,
        "meta_eccentricity": 0.00036014,
        "meta_inclination": 97.9854,
        "meta_ra_of_asc_node": 348.9522,
        "meta_arg_of_pericenter": 84.5829,
        "meta_mean_anomaly": 275.5794,
        "meta_ephemeris_type": 0,
        "meta_classification_type": "U",
        "meta_norad_cat_id": 48079,
        "meta_element_set_no": 999,
        "meta_rev_at_epoch": 25539,
        "meta_bstar": 5.0372884e-05,
        "meta_mean_motion_dot": 3.34e-06,
        "meta_mean_motion_ddot": 0,
        "tle_line1": "1 48079U 21026A   25354.98551148  .00000334  00000+0  50373-4 0  9990",
        "tle_line2": "2 48079  97.9854 348.9522 0003601  84.5829 275.5794 14.80683978255398"
      },
      "geometry": {
        "type": "Point",
        "coordinates": [
          57.88841258088103,
          -81.43088919661403
        ]
      }
    },
    {
      "type": "Feature",
      "properties": {
        "norad_id": 48268,
        "name": "PLEIADES NEO 3",
        "group": "resource",
        "lat": 10.118762010265762,
        "lon": 66.1396406123424,
        "alt_km": 625.5021801140074,
        "timestamp": "2025-12-21T05:44:51.233637+00:00",
        "meta_object_name": "PLEIADES NEO 3",
        "meta_object_id": "2021-034A",
        "meta_epoch": "2025-12-20T23:13:06.492864",
        "meta_mean_motion": 14.81672995,
        "meta_eccentricity": 0.00013681,
        "meta_inclination": 97.8951,
        "meta_ra_of_asc_node": 67.2906,
        "meta_arg_of_pericenter": 91.725,
        "meta_mean_anomaly": 268.4119,
        "meta_ephemeris_type": 0,
        "meta_classification_type": "U",
        "meta_norad_cat_id": 48268,
        "meta_element_set_no": 999,
        "meta_rev_at_epoch": 25126,
        "meta_bstar": 4.0689982e-05,
        "meta_mean_motion_dot": 2.68e-06,
        "meta_mean_motion_ddot": 0,
        "tle_line1": "1 48268U 21034A   25354.96743626  .00000268  00000+0  40690-4 0  9998",
        "tle_line2": "2 48268  97.8951  67.2906 0001368  91.7250 268.4119 14.81672995251260"
      },
      "geometry": {
        "type": "Point",
        "coordinates": [
          66.1396406123424,
          10.118762010265762
        ]
      }
    },
    {
      "type": "Feature",
      "properties": {
        "norad_id": 49070,
        "name": "PLEIADES NEO 4",
        "group": "resource",
        "lat": -10.448409626357588,
        "lon": -113.91145483704751,
        "alt_km": 628.5293362196753,
        "timestamp": "2025-12-21T05:44:51.233647+00:00",
        "meta_object_name": "PLEIADES NEO 4",
        "meta_object_id": "2021-073E",
        "meta_epoch": "2025-12-20T17:32:43.601280",
        "meta_mean_motion": 14.81672177,
        "meta_eccentricity": 0.00013249,
        "meta_inclination": 97.8951,
        "meta_ra_of_asc_node": 67.0538,
        "meta_arg_of_pericenter": 89.6187,
        "meta_mean_anomaly": 270.5178,
        "meta_ephemeris_type": 0,
        "meta_classification_type": "U",
        "meta_norad_cat_id": 49070,
        "meta_element_set_no": 999,
        "meta_rev_at_epoch": 23494,
        "meta_bstar": -3.6645539e-05,
        "meta_mean_motion_dot": -3.4e-06,
        "meta_mean_motion_ddot": 0,
        "tle_line1": "1 49070U 21073E   25354.73106020 -.00000340  00000+0 -36646-4 0  9998",
        "tle_line2": "2 49070  97.8951  67.0538 0001324  89.6187 270.5178 14.81672177234945"
      },
      "geometry": {
        "type": "Point",
        "coordinates": [
          -113.91145483704751,
          -10.448409626357588
        ]
      }
    },
    {
      "type": "Feature",
      "properties": {
        "norad_id": 49260,
        "name": "LANDSAT 9",
        "group": "resource",
        "lat": 3.2929435011628794,
        "lon": -116.2972319744834,
        "alt_km": 705.0273491100679,
        "timestamp": "2025-12-21T05:44:51.233657+00:00",
        "meta_object_name": "LANDSAT 9",
        "meta_object_id": "2021-088A",
        "meta_epoch": "2025-12-20T19:03:05.444928",
        "meta_mean_motion": 14.57105481,
        "meta_eccentricity": 0.00011044,
        "meta_inclination": 98.2084,
        "meta_ra_of_asc_node": 62.7878,
        "meta_arg_of_pericenter": 91.462,
        "meta_mean_anomaly": 268.6705,
        "meta_ephemeris_type": 0,
        "meta_classification_type": "U",
        "meta_norad_cat_id": 49260,
        "meta_element_set_no": 999,
        "meta_rev_at_epoch": 22502,
        "meta_bstar": 7.6270518e-05,
        "meta_mean_motion_dot": 2.98e-06,
        "meta_mean_motion_ddot": 0,
        "tle_line1": "1 49260U 21088A   25354.79381302  .00000298  00000+0  76271-4 0  9997",
        "tle_line2": "2 49260  98.2084  62.7878 0001104  91.4620 268.6705 14.57105481225021"
      },
      "geometry": {
        "type": "Point",
        "coordinates": [
          -116.2972319744834,
          3.2929435011628794
        ]
      }
    },
    {
      "type": "Feature",
      "properties": {
        "norad_id": 51444,
        "name": "CSG-2",
        "group": "resource",
        "lat": -56.944908015098406,
        "lon": -15.853376672286291,
        "alt_km": 630.5575661653356,
        "timestamp": "2025-12-21T05:44:51.233667+00:00",
        "meta_object_name": "CSG-2",
        "meta_object_id": "2022-008A",
        "meta_epoch": "2025-12-20T22:11:50.131392",
        "meta_mean_motion": 14.82151117,
        "meta_eccentricity": 0.00014557,
        "meta_inclination": 97.8797,
        "meta_ra_of_asc_node": 176.1242,
        "meta_arg_of_pericenter": 83.6409,
        "meta_mean_anomaly": 276.497,
        "meta_ephemeris_type": 0,
        "meta_classification_type": "U",
        "meta_norad_cat_id": 51444,
        "meta_element_set_no": 999,
        "meta_rev_at_epoch": 21018,
        "meta_bstar": 6.0013548e-05,
        "meta_mean_motion_dot": 4.26e-06,
        "meta_mean_motion_ddot": 0,
        "tle_line1": "1 51444U 22008A   25354.92488578  .00000426  00000+0  60014-4 0  9996",
        "tle_line2": "2 51444  97.8797 176.1242 0001455  83.6409 276.4970 14.82151117210183"
      },
      "geometry": {
        "type": "Point",
        "coordinates": [
          -15.853376672286291,
          -56.944908015098406
        ]
      }
    }
  ]
}